QIANFAN-172             
1 69389U 26124H   26177.12312940  .00000120  00000+0  49968-4 0  9997
2 69389  88.9984   1.0199 0003291 135.9355 224.2098 14.19639564  3085
QIANFAN-173             
1 69390U 26124J   26177.11520701  .00000112  00000+0  45481-4 0  9991
2 69390  88.9984   1.0188 0003524 127.2654 232.8858 14.20510872  3081
QIANFAN-174             
1 69391U 26124K   26177.10987108  .00000129  00000+0  52986-4 0  9995
2 69391  88.9984   1.0179 0003764 133.0479 227.1027 14.20879507  3086
QIANFAN-175             
1 69392U 26124L   26177.17704355  .00000129  00000+0  52480-4 0  9993
2 69392  88.9984   1.0094 0004383 146.5457 213.6011 14.21340973  3091
QIANFAN-176             
1 69393U 26124M   26177.17229652  .00000137  00000+0  55641-4 0  9997
2 69393  88.9984   1.0087 0003331 149.5930 210.5455 14.21842330  3097
QIANFAN-177             
1 69394U 26124N   26177.16489326  .00000128  00000+0  50505-4 0  9997
2 69394  88.9984   1.0076 0004409 127.1505 233.0089 14.22731726  3093
QIANFAN-178             
1 69395U 26124P   26177.16840068  .00000124  00000+0  49376-4 0  9992
2 69395  88.9984   1.0081 0003719 135.9241 224.2248 14.22275282  3096
QIANFAN-179             
1 69396U 26124Q   26177.16118186  .00000127  00000+0  49736-4 0  9995
2 69396  88.9983   1.0069 0003721 132.3030 227.8478 14.23098374  3092
QIANFAN-180             
1 69397U 26124R   26177.15753220  .00000137  00000+0  53718-4 0  9995
2 69397  88.9984   1.0065 0004010 142.4565 217.6908 14.23620065  3090
QIANFAN-181             
1 69398U 26124S   26177.15459617  .00000112  00000+0  48977-4 0  9993
2 69398  88.9984   1.0246 0002911 106.3627 253.7882 14.16650326  3084
QIANFAN-182             
1 69399U 26124T   26177.13231617  .00000117  00000+0  49675-4 0  9991
2 69399  88.9984   1.0214 0003146 126.4106 233.7374 14.18739596  3089
QIANFAN-183             
1 69401U 26125A   26177.17034384  .00000350  00000+0  16890-3 0  9993
2 69401  88.9953 279.4332 0015227 146.0534 214.1632 14.16465110  2970
QIANFAN-184             
1 69402U 26125B   26177.16239522  .00000363  00000+0  17403-3 0  9999
2 69402  88.9953 279.4322 0016127 140.4526 219.7842 14.16885109  2977
QIANFAN-185             
1 69403U 26125C   26177.16691992  .00000361  00000+0  17519-3 0  9999
2 69403  88.9954 279.4328 0016958 141.0216 219.2197 14.16089910  2974
QIANFAN-186             
1 69404U 26125D   26177.15454522  .00000378  00000+0  17928-3 0  9997
2 69404  88.9954 279.4310 0015417 141.7479 218.4807 14.17435999  2975
QIANFAN-187             
1 69405U 26125E   26177.07666715  .00000370  00000+0  17227-3 0  9992
2 69405  88.9954 279.4378 0015919 143.0343 217.1947 14.18346573  2962
QIANFAN-188             
1 69406U 26125F   26177.13802556  .00000382  00000+0  17481-3 0  9990
2 69406  88.9953 279.4283 0015890 146.3232 213.8971 14.19438900  2976
QIANFAN-189             
1 69407U 26125G   26177.14160249  .00000383  00000+0  17719-3 0  9993
2 69407  88.9954 279.4290 0015148 143.7236 216.4984 14.18757928  2973
QIANFAN-190             
1 69408U 26125H   26177.13766667  .00000378  00000+0  17317-3 0  9997
2 69408  88.9954 279.4285 0015923 145.3624 214.8606 14.19220979  2973
QIANFAN-191             
1 69409U 26125J   26177.12920089  .00000386  00000+0  17413-3 0  9993
2 69409  88.9953 279.4270 0015330 144.1897 216.0324 14.20092207  2972
QIANFAN-192             
1 69410U 26125K   26177.19531897  .00000401  00000+0  17981-3 0  9995
2 69410  88.9954 279.4185 0016192 144.3614 215.8661 14.20518293  2986
QIANFAN-193             
1 69411U 26125L   26177.18982617  .00000407  00000+0  18103-3 0  9998
2 69411  88.9953 279.4176 0016076 144.7731 215.4525 14.20960869  2986
QIANFAN-194             
1 69412U 26125M   26177.18603524  .00000408  00000+0  17988-3 0  9997
2 69412  88.9953 279.4170 0015354 148.2643 211.9477 14.21402599  2978
QIANFAN-195             
1 69413U 26125N   26177.18248613  .00000418  00000+0  18338-3 0  9993
2 69413  88.9953 279.4166 0016560 147.0382 213.1845 14.21799956  2981
QIANFAN-196             
1 69414U 26125P   26177.17829708  .00000409  00000+0  17755-3 0  9995
2 69414  88.9954 279.4159 0016668 147.4656 212.7566 14.22295064  2989
QIANFAN-197             
1 69415U 26125Q   26177.17510333  .00000410  00000+0  17638-3 0  9999
2 69415  88.9954 279.4153 0014958 144.4452 215.7740 14.22739526  2977
QIANFAN-198             
1 69416U 26125R   26177.17900667  .00000403  00000+0  17575-3 0  9995
2 69416  88.9954 279.4160 0015267 143.8709 216.3516 14.22066200  2989
QIANFAN-199             
1 69417U 26125S   26177.16898262  .00000426  00000+0  18025-3 0  9998
2 69417  88.9953 279.4144 0016984 144.9357 215.2957 14.23629757  2989
QIANFAN-200             
1 69418U 26125T   26177.13264303  .00000386  00000+0  17583-3 0  9992
2 69418  88.9954 279.4276 0016018 143.0826 217.1470 14.19639799  2978
