OBJECT_NAME,OBJECT_ID,EPOCH,MEAN_MOTION,ECCENTRICITY,INCLINATION,RA_OF_ASC_NODE,ARG_OF_PERICENTER,MEAN_ANOMALY,EPHEMERIS_TYPE,CLASSIFICATION_TYPE,NORAD_CAT_ID,ELEMENT_SET_NO,REV_AT_EPOCH,BSTAR,MEAN_MOTION_DOT,MEAN_MOTION_DDOT
QIANFAN-172,2026-124H,2026-06-26T02:57:18.380160,14.19639564,.0003291,88.9984,1.0199,135.9355,224.2098,0,U,69389,999,308,.49968E-4,.12E-5,0
QIANFAN-173,2026-124J,2026-06-26T02:45:53.885664,14.20510872,.0003524,88.9984,1.0188,127.2654,232.8858,0,U,69390,999,308,.45481E-4,.112E-5,0
QIANFAN-174,2026-124K,2026-06-26T02:38:12.861312,14.20879507,.0003764,88.9984,1.0179,133.0479,227.1027,0,U,69391,999,308,.52986E-4,.129E-5,0
QIANFAN-175,2026-124L,2026-06-26T04:14:56.562720,14.21340973,.0004383,88.9984,1.0094,146.5457,213.6011,0,U,69392,999,309,.5248E-4,.129E-5,0
QIANFAN-176,2026-124M,2026-06-26T04:08:06.419328,14.21842330,.0003331,88.9984,1.0087,149.5930,210.5455,0,U,69393,999,309,.55641E-4,.137E-5,0
QIANFAN-177,2026-124N,2026-06-26T03:57:26.777664,14.22731726,.0004409,88.9984,1.0076,127.1505,233.0089,0,U,69394,999,309,.50505E-4,.128E-5,0
QIANFAN-178,2026-124P,2026-06-26T04:02:29.818752,14.22275282,.0003719,88.9984,1.0081,135.9241,224.2248,0,U,69395,999,309,.49376E-4,.124E-5,0
QIANFAN-179,2026-124Q,2026-06-26T03:52:06.112704,14.23098374,.0003721,88.9983,1.0069,132.3030,227.8478,0,U,69396,999,309,.49736E-4,.127E-5,0
QIANFAN-180,2026-124R,2026-06-26T03:46:50.782080,14.23620065,.000401,88.9984,1.0065,142.4565,217.6908,0,U,69397,999,309,.53718E-4,.137E-5,0
QIANFAN-181,2026-124S,2026-06-26T03:42:37.109088,14.16650326,.0002911,88.9984,1.0246,106.3627,253.7882,0,U,69398,999,308,.48977E-4,.112E-5,0
QIANFAN-182,2026-124T,2026-06-26T03:10:32.117088,14.18739596,.0003146,88.9984,1.0214,126.4106,233.7374,0,U,69399,999,308,.49675E-4,.117E-5,0
QIANFAN-183,2026-125A,2026-06-26T04:05:17.707776,14.16465110,.0015227,88.9953,279.4332,146.0534,214.1632,0,U,69401,999,297,.1689E-3,.35E-5,0
QIANFAN-184,2026-125B,2026-06-26T03:53:50.947008,14.16885109,.0016127,88.9953,279.4322,140.4526,219.7842,0,U,69402,999,297,.17403E-3,.363E-5,0
QIANFAN-185,2026-125C,2026-06-26T04:00:21.881088,14.16089910,.0016958,88.9954,279.4328,141.0216,219.2197,0,U,69403,999,297,.17519E-3,.361E-5,0
QIANFAN-186,2026-125D,2026-06-26T03:42:32.707008,14.17435999,.0015417,88.9954,279.4310,141.7479,218.4807,0,U,69404,999,297,.17928E-3,.378E-5,0
QIANFAN-187,2026-125E,2026-06-26T01:50:24.041760,14.18346573,.0015919,88.9954,279.4378,143.0343,217.1947,0,U,69405,999,296,.17227E-3,.37E-5,0
QIANFAN-188,2026-125F,2026-06-26T03:18:45.408384,14.19438900,.001589,88.9953,279.4283,146.3232,213.8971,0,U,69406,999,297,.17481E-3,.382E-5,0
QIANFAN-189,2026-125G,2026-06-26T03:23:54.455136,14.18757928,.0015148,88.9954,279.4290,143.7236,216.4984,0,U,69407,999,297,.17719E-3,.383E-5,0
QIANFAN-190,2026-125H,2026-06-26T03:18:14.400288,14.19220979,.0015923,88.9954,279.4285,145.3624,214.8606,0,U,69408,999,297,.17317E-3,.378E-5,0
QIANFAN-191,2026-125J,2026-06-26T03:06:02.956896,14.20092207,.001533,88.9953,279.4270,144.1897,216.0324,0,U,69409,999,297,.17413E-3,.386E-5,0
QIANFAN-192,2026-125K,2026-06-26T04:41:15.559008,14.20518293,.0016192,88.9954,279.4185,144.3614,215.8661,0,U,69410,999,298,.17981E-3,.401E-5,0
QIANFAN-193,2026-125L,2026-06-26T04:33:20.981088,14.20960869,.0016076,88.9953,279.4176,144.7731,215.4525,0,U,69411,999,298,.18103E-3,.407E-5,0
QIANFAN-194,2026-125M,2026-06-26T04:27:53.444736,14.21402599,.0015354,88.9953,279.4170,148.2643,211.9477,0,U,69412,999,297,.17988E-3,.408E-5,0
QIANFAN-195,2026-125N,2026-06-26T04:22:46.801632,14.21799956,.001656,88.9953,279.4166,147.0382,213.1845,0,U,69413,999,298,.18338E-3,.418E-5,0
QIANFAN-196,2026-125P,2026-06-26T04:16:44.867712,14.22295064,.0016668,88.9954,279.4159,147.4656,212.7566,0,U,69414,999,298,.17755E-3,.409E-5,0
QIANFAN-197,2026-125Q,2026-06-26T04:12:08.927712,14.22739526,.0014958,88.9954,279.4153,144.4452,215.7740,0,U,69415,999,297,.17638E-3,.41E-5,0
QIANFAN-198,2026-125R,2026-06-26T04:17:46.176288,14.22066200,.0015267,88.9954,279.4160,143.8709,216.3516,0,U,69416,999,298,.17575E-3,.403E-5,0
QIANFAN-199,2026-125S,2026-06-26T04:03:20.098368,14.23629757,.0016984,88.9953,279.4144,144.9357,215.2957,0,U,69417,999,298,.18025E-3,.426E-5,0
QIANFAN-200,2026-125T,2026-06-26T03:11:00.357792,14.19639799,.0016018,88.9954,279.4276,143.0826,217.1470,0,U,69418,999,297,.17583E-3,.386E-5,0
